{
"type": "FeatureCollection",
"name": "erie",
"crs": { "type": "name", "properties": { "name": "urn:ogc:def:crs:OGC:1.3:CRS84" } },
"features": [
{ "type": "Feature", "properties": { "scalerank": 0, "featurecla": "Lake", "name": "Lake Erie", "name_alt": "Great Lakes", "admin": "admin-0", "min_zoom": 1.0, "min_label": 3.0, "name_abb": "L. Erie", "label": "Lake Erie", "wikidataid": "Q5492", "name_ar": "بحيرة إري", "name_bn": "ইরি হ্রদ", "name_de": "Eriesee", "name_en": "Erie", "name_es": "Erie", "name_fr": "Érié", "name_el": "Λίμνη Ήρι", "name_hi": "ईरी झील", "name_hu": "Erie-tó", "name_id": "Danau Erie", "name_it": "Erie", "name_ja": "エリー湖", "name_ko": "이리호", "name_nl": "Eriemeer", "name_pl": "Erie", "name_pt": "Erie", "name_ru": "Эри", "name_sv": "Eriesjön", "name_tr": "Erie", "name_vi": "Erie", "name_zh": "伊利湖", "ne_id": 1159106757, "name_fa": "دریاچه ایری", "name_he": "ימת אירי", "name_uk": "Ері", "name_ur": "جھیل ایری", "name_zht": "伊利湖" }, "geometry": { "type": "Polygon", "coordinates": [ [ [ -83.120011359372455, 42.080015774090157 ], [ -82.571233486648907, 42.017022203126359 ], [ -81.829185757153738, 42.335529893557322 ], [ -81.392261522125949, 42.615176906904807 ], [ -81.094967007150814, 42.660755520186228 ], [ -80.545155605781417, 42.560089830081665 ], [ -80.27917700877515, 42.715661729496347 ], [ -79.791351487939863, 42.842036444666121 ], [ -78.92000932485044, 42.965000515304638 ], [ -78.900578986308687, 42.866711941085498 ], [ -79.762205980127248, 42.269616604169045 ], [ -80.516449347643288, 41.980331936199136 ], [ -81.031198289702644, 41.845508124349635 ], [ -81.623513556632091, 41.568935858723535 ], [ -82.34744869660895, 41.435920722004255 ], [ -82.846100430009386, 41.487106228189347 ], [ -83.462832811196733, 41.69396698665372 ], [ -83.120011359372455, 42.080015774090157 ], [ -83.120011359372455, 42.080015774090157 ] ] ] } }
]
}
